{"type": "FeatureCollection", "features": [{"type": "Feature", "geometry": {"type": "Polygon", "coordinates": [[[5.675390798549977, 51.242611555695596], [5.596599839868723, 51.02858874200144], [5.85628479209224, 50.89879369067929], [6.195793133820789, 50.982707674601976], [6.276715770797503, 51.196854397252444], [6.016001504979533, 51.32696596827347], [5.675390798549977, 51.242611555695596]]]}, "properties": {"cel": "841fa55ffffffff", "woningen": 210840, "eengezinswoningen": 160521}}, {"type": "Feature", "geometry": {"type": "Polygon", "coordinates": [[[5.1229188196543065, 52.26002839457246], [5.044968117225208, 52.04886165736768], [5.308726001777513, 51.92323953234299], [5.651539058535321, 52.008471671779], [5.731690882824933, 52.21976043766328], [5.466831411546878, 52.345697869128486], [5.1229188196543065, 52.26002839457246]]]}, "properties": {"cel": "8419691ffffffff", "woningen": 612827, "eengezinswoningen": 370991}}, {"type": "Feature", "geometry": {"type": "Polygon", "coordinates": [[[5.975494800041361, 52.849979886683855], [5.893663271097937, 52.640518853951804], [6.159602624145406, 52.514255324924285], [6.508433890253331, 52.597118782926344], [6.592499941890046, 52.8066686793699], [6.325503774194409, 52.93326915377151], [5.975494800041361, 52.849979886683855]]]}, "properties": {"cel": "84196d3ffffffff", "woningen": 113376, "eengezinswoningen": 93123}}, {"type": "Feature", "geometry": {"type": "Polygon", "coordinates": [[[5.308726001777513, 51.92323953234299], [5.230485444051297, 51.71111504975634], [5.492877233124455, 51.58409717013917], [5.834589585023772, 51.66889096189643], [5.91500788768879, 51.88113817832873], [5.651539058535321, 52.008471671779], [5.308726001777513, 51.92323953234299]]]}, "properties": {"cel": "8419693ffffffff", "woningen": 439529, "eengezinswoningen": 310564}}, {"type": "Feature", "geometry": {"type": "Polygon", "coordinates": [[[6.342033022979809, 52.17616518088741], [6.2596870559819795, 51.96477015603751], [6.5228051685333694, 51.83571890159338], [6.869280733993489, 51.9177289530968], [6.9538122986060005, 52.12921443299482], [6.689686412391241, 52.258602240913], [6.342033022979809, 52.17616518088741]]]}, "properties": {"cel": "841f165ffffffff", "woningen": 121416, "eengezinswoningen": 96781}}, {"type": "Feature", "geometry": {"type": "Polygon", "coordinates": [[[5.360037105543062, 52.889916444736166], [5.280447931154215, 52.68056006543038], [5.546706932518289, 52.55602289766632], [5.893663271097937, 52.640518853951804], [5.975494800041361, 52.849979886683855], [5.7081307738746485, 52.974843209860445], [5.360037105543062, 52.889916444736166]]]}, "properties": {"cel": "84196d7ffffffff", "woningen": 48065, "eengezinswoningen": 41887}}, {"type": "Feature", "geometry": {"type": "Polygon", "coordinates": [[[6.592499941890046, 52.8066686793699], [6.508433890253331, 52.597118782926344], [6.773989989512542, 52.469122456237514], [7.124623651090491, 52.55033160636026], [7.210914762886538, 52.759954556369124], [6.944351153000187, 52.88829819773889], [6.592499941890046, 52.8066686793699]]]}, "properties": {"cel": "841f169ffffffff", "woningen": 88130, "eengezinswoningen": 71898}}, {"type": "Feature", "geometry": {"type": "Polygon", "coordinates": [[[5.85628479209224, 50.89879369067929], [5.777232872075266, 50.68383106622269], [6.035577117252998, 50.55265534490405], [6.373982588904814, 50.63612783375915], [6.45514349773485, 50.8512148280114], [6.195793133820789, 50.982707674601976], [5.85628479209224, 50.89879369067929]]]}, "properties": {"cel": "841fa0bffffffff", "woningen": 107721, "eengezinswoningen": 74384}}, {"type": "Feature", "geometry": {"type": "Polygon", "coordinates": [[[4.027355385040228, 51.7857739955379], [3.7055345568955165, 51.739783299591025], [3.633223094312099, 51.52673397987455], [3.8811335596706282, 51.36037619595016], [4.215980873235825, 51.449366481977485], [4.290175196516134, 51.66214921119702], [4.027355385040228, 51.7857739955379]]]}, "properties": {"cel": "84196b3ffffffff", "woningen": 87161, "eengezinswoningen": 74356}}, {"type": "Feature", "geometry": {"type": "Polygon", "coordinates": [[[4.101224546151948, 51.99760587617091], [4.027355385040254, 51.7857739955379], [4.290175196516134, 51.66214921119702], [4.628032082434656, 51.75006590176748], [4.7040890854147595, 51.96205191760423], [4.440103513731898, 52.08596989484932], [4.101224546151948, 51.99760587617091]]]}, "properties": {"cel": "84196bbffffffff", "woningen": 967947, "eengezinswoningen": 462136}}, {"type": "Feature", "geometry": {"type": "Polygon", "coordinates": [[[4.7040890854147595, 51.96205191760423], [4.628032082434656, 51.75006590176748], [4.890667998015262, 51.62474836211356], [5.230485444051297, 51.71111504975634], [5.308726001777513, 51.92323953234299], [5.044968117225208, 52.04886165736768], [4.7040890854147595, 51.96205191760423]]]}, "properties": {"cel": "8419697ffffffff", "woningen": 338771, "eengezinswoningen": 245409}}, {"type": "Feature", "geometry": {"type": "Polygon", "coordinates": [[[4.290175196516134, 51.66214921119702], [4.215980873235825, 51.449366481977485], [4.477475720820146, 51.32434288952731], [4.814308205886354, 51.411810836648336], [4.890667998015262, 51.62474836211356], [4.628032082434656, 51.75006590176748], [4.290175196516134, 51.66214921119702]]]}, "properties": {"cel": "841fa49ffffffff", "woningen": 271059, "eengezinswoningen": 197665}}, {"type": "Feature", "geometry": {"type": "Polygon", "coordinates": [[[6.22443793959688, 53.47464025226819], [6.140876446992139, 53.26704465578924], [6.4093225399865545, 53.141844054033974], [6.76239166890601, 53.22389356434425], [6.848228907047902, 53.43156035343159], [6.5787251296949085, 53.55710940185454], [6.22443793959688, 53.47464025226819]]]}, "properties": {"cel": "84196d9ffffffff", "woningen": 169743, "eengezinswoningen": 90054}}, {"type": "Feature", "geometry": {"type": "Polygon", "coordinates": [[[6.773989989512542, 52.469122456237514], [6.689686412391241, 52.258602240913], [6.9538122986060005, 52.12921443299482], [7.303228995500311, 52.21000281563325], [7.389732706298548, 52.42059691180549], [7.124623651090491, 52.55033160636026], [6.773989989512542, 52.469122456237514]]]}, "properties": {"cel": "841f161ffffffff", "woningen": 175105, "eengezinswoningen": 123327}}, {"type": "Feature", "geometry": {"type": "Polygon", "coordinates": [[[3.633223094312099, 51.52673397987455], [3.311971067451304, 51.479060927031824], [3.2412084486959833, 51.264803422530456], [3.4900844787547185, 51.09891865954136], [3.8087710228646627, 51.14681944602007], [3.8811335596706282, 51.36037619595016], [3.633223094312099, 51.52673397987455]]]}, "properties": {"cel": "84194d9ffffffff", "woningen": 85701, "eengezinswoningen": 61828}}, {"type": "Feature", "geometry": {"type": "Polygon", "coordinates": [[[3.8811335596706322, 51.36037619595015], [3.8087710228646725, 51.14681944602007], [4.069106947228812, 51.022079257844915], [4.402966277603705, 51.11061513132634], [4.477475720820146, 51.32434288952731], [4.215980873235825, 51.449366481977485], [3.8811335596706322, 51.36037619595015]]]}, "properties": {"cel": "841fa4dffffffff", "woningen": 25601, "eengezinswoningen": 22865}}, {"type": "Feature", "geometry": {"type": "Polygon", "coordinates": [[[5.602169109351211, 53.51429809465924], [5.5208921085104885, 53.30678949940435], [5.789690163060998, 53.183330146086654], [6.140876446992139, 53.26704465578924], [6.22443793959688, 53.47464025226819], [5.954532066719852, 53.59843730362379], [5.602169109351211, 53.51429809465924]]]}, "properties": {"cel": "84196ddffffffff", "woningen": 87990, "eengezinswoningen": 62013}}, {"type": "Feature", "geometry": {"type": "Polygon", "coordinates": [[[4.890667998015262, 51.62474836211356], [4.814308205886354, 51.411810836648336], [5.075602434512045, 51.28509812157106], [5.414356659915988, 51.37102053400228], [5.492877233124455, 51.58409717013917], [5.230485444051297, 51.71111504975634], [4.890667998015262, 51.62474836211356]]]}, "properties": {"cel": "841fa4bffffffff", "woningen": 323317, "eengezinswoningen": 241504}}, {"type": "Feature", "geometry": {"type": "Polygon", "coordinates": [[[4.25050451151943, 52.41951326968969], [3.9254969342341286, 52.375443093892166], [3.8516664514153756, 52.164142324053614], [4.101224546151929, 51.99760587617092], [4.440103513731898, 52.08596989484932], [4.515847674511955, 52.29699888389901], [4.25050451151943, 52.41951326968969]]]}, "properties": {"cel": "84196b9ffffffff", "woningen": 369549, "eengezinswoningen": 113888}}, {"type": "Feature", "geometry": {"type": "Polygon", "coordinates": [[[4.325925564080173, 52.62958008752065], [4.25050451151944, 52.41951326968969], [4.515847674511955, 52.29699888389901], [4.857786417379108, 52.38425047116416], [4.935437210908015, 52.59445424847641], [4.668921895429569, 52.71727233703055], [4.325925564080173, 52.62958008752065]]]}, "properties": {"cel": "8419683ffffffff", "woningen": 409161, "eengezinswoningen": 241776}}, {"type": "Feature", "geometry": {"type": "Polygon", "coordinates": [[[4.981563079137099, 53.55056392119272], [4.9025776222821325, 53.34315811241332], [5.171662267208825, 53.22143268344653], [5.5208921085104885, 53.30678949940435], [5.602169109351211, 53.51429809465924], [5.331927686109048, 53.63635005257639], [4.981563079137099, 53.55056392119272]]]}, "properties": {"cel": "84196c3ffffffff", "woningen": 3038, "eengezinswoningen": 2554}}, {"type": "Feature", "geometry": {"type": "Polygon", "coordinates": [[[7.030420182655282, 53.09694525393492], [6.944351153000187, 52.88829819773889], [7.210914762886538, 52.759954556369124], [7.564533323932319, 52.83990293785271], [7.652841839705486, 53.04860633703227], [7.385296677860018, 53.17730793193857], [7.030420182655282, 53.09694525393492]]]}, "properties": {"cel": "841f145ffffffff", "woningen": 17476, "eengezinswoningen": 15080}}, {"type": "Feature", "geometry": {"type": "Polygon", "coordinates": [[[4.478355915369004, 53.04791881745584], [4.150108174211895, 53.00577849030706], [4.074712576769367, 52.79626540674204], [4.325925564080153, 52.62958008752069], [4.668921895429569, 52.71727233703055], [4.746262508635347, 52.92650831023656], [4.478355915369004, 53.04791881745584]]]}, "properties": {"cel": "8419681ffffffff", "woningen": 3087, "eengezinswoningen": 2874}}, {"type": "Feature", "geometry": {"type": "Polygon", "coordinates": [[[4.515847674511955, 52.29699888389901], [4.440103513731898, 52.08596989484932], [4.7040890854147595, 51.96205191760423], [5.044968117225208, 52.04886165736768], [5.1229188196543065, 52.26002839457246], [4.857786417379108, 52.38425047116416], [4.515847674511955, 52.29699888389901]]]}, "properties": {"cel": "8419695ffffffff", "woningen": 854675, "eengezinswoningen": 396998}}, {"type": "Feature", "geometry": {"type": "Polygon", "coordinates": [[[6.848228907047902, 53.43156035343159], [6.76239166890601, 53.22389356434425], [7.030420182655282, 53.09694525393492], [7.385296677860018, 53.17730793193857], [7.473399217178676, 53.38503009885648], [7.204364266485223, 53.51233716436093], [6.848228907047902, 53.43156035343159]]]}, "properties": {"cel": "841f14dffffffff", "woningen": 45072, "eengezinswoningen": 36753}}, {"type": "Feature", "geometry": {"type": "Polygon", "coordinates": [[[5.492877233124455, 51.58409717013917], [5.414356659915988, 51.37102053400228], [5.675390798549977, 51.242611555695596], [6.016001504979533, 51.32696596827347], [6.09667667520801, 51.54016596653809], [5.834589585023772, 51.66889096189643], [5.492877233124455, 51.58409717013917]]]}, "properties": {"cel": "841fa5dffffffff", "woningen": 349586, "eengezinswoningen": 254385}}, {"type": "Feature", "geometry": {"type": "Polygon", "coordinates": [[[5.171662267208825, 53.22143268344653], [5.092369705235293, 53.01304949752498], [5.360037105543062, 52.889916444736166], [5.7081307738746485, 52.974843209860445], [5.789690163060998, 53.183330146086654], [5.5208921085104885, 53.30678949940435], [5.171662267208825, 53.22143268344653]]]}, "properties": {"cel": "84196d5ffffffff", "woningen": 67536, "eengezinswoningen": 55880}}, {"type": "Feature", "geometry": {"type": "Polygon", "coordinates": [[[5.91500788768879, 51.88113817832873], [5.834589585023772, 51.66889096189643], [6.09667667520801, 51.54016596653809], [6.440216462186488, 51.62336473303182], [6.5228051685333694, 51.83571890159338], [6.2596870559819795, 51.96477015603751], [5.91500788768879, 51.88113817832873]]]}, "properties": {"cel": "841fa59ffffffff", "woningen": 90559, "eengezinswoningen": 75302}}, {"type": "Feature", "geometry": {"type": "Polygon", "coordinates": [[[4.746262508635347, 52.92650831023656], [4.668921895429569, 52.71727233703055], [4.935437210908015, 52.59445424847641], [5.280447931154215, 52.68056006543038], [5.360037105543062, 52.889916444736166], [5.092369705235293, 53.01304949752498], [4.746262508635347, 52.92650831023656]]]}, "properties": {"cel": "841968bffffffff", "woningen": 181959, "eengezinswoningen": 147228}}, {"type": "Feature", "geometry": {"type": "Polygon", "coordinates": [[[6.09667667520801, 51.54016596653809], [6.016001504979533, 51.32696596827347], [6.276715770797503, 51.196854397252444], [6.619115938569992, 51.27961911171182], [6.70193801790892, 51.4929266760668], [6.440216462186488, 51.62336473303182], [6.09667667520801, 51.54016596653809]]]}, "properties": {"cel": "841fa51ffffffff", "woningen": 63354, "eengezinswoningen": 46219}}, {"type": "Feature", "geometry": {"type": "Polygon", "coordinates": [[[6.159602624145406, 52.514255324924285], [6.07750897684047, 52.30382480519446], [6.342033022979809, 52.17616518088741], [6.689686412391241, 52.258602240913], [6.773989989512542, 52.469122456237514], [6.508433890253331, 52.597118782926344], [6.159602624145406, 52.514255324924285]]]}, "properties": {"cel": "841f16dffffffff", "woningen": 179137, "eengezinswoningen": 143126}}, {"type": "Feature", "geometry": {"type": "Polygon", "coordinates": [[[4.555375854929397, 53.256182505446375], [4.478355915369003, 53.04791881745583], [4.746262508635347, 52.92650831023656], [5.092369705235293, 53.01304949752498], [5.171662267208825, 53.22143268344653], [4.9025776222821325, 53.34315811241332], [4.555375854929397, 53.256182505446375]]]}, "properties": {"cel": "8419689ffffffff", "woningen": 28542, "eengezinswoningen": 20307}}, {"type": "Feature", "geometry": {"type": "Polygon", "coordinates": [[[5.546706932518289, 52.55602289766632], [5.466831411546878, 52.345697869128486], [5.731690882824933, 52.21976043766328], [6.07750897684047, 52.30382480519446], [6.159602624145406, 52.514255324924285], [5.893663271097937, 52.640518853951804], [5.546706932518289, 52.55602289766632]]]}, "properties": {"cel": "8419699ffffffff", "woningen": 211771, "eengezinswoningen": 158153}}, {"type": "Feature", "geometry": {"type": "Polygon", "coordinates": [[[4.935437210908015, 52.59445424847641], [4.857786417379108, 52.38425047116416], [5.1229188196543065, 52.26002839457246], [5.466831411546878, 52.345697869128486], [5.546706932518289, 52.55602289766632], [5.280447931154215, 52.68056006543038], [4.935437210908015, 52.59445424847641]]]}, "properties": {"cel": "841969dffffffff", "woningen": 439610, "eengezinswoningen": 210526}}, {"type": "Feature", "geometry": {"type": "Polygon", "coordinates": [[[5.075602434512045, 51.28509812157106], [4.998949697138205, 51.07121498322438], [5.2589102378856225, 50.9431118453796], [5.596599839868723, 51.02858874200144], [5.675390798549977, 51.242611555695596], [5.414356659915988, 51.37102053400228], [5.075602434512045, 51.28509812157106]]]}, "properties": {"cel": "841fa43ffffffff", "woningen": 22300, "eengezinswoningen": 19601}}, {"type": "Feature", "geometry": {"type": "Polygon", "coordinates": [[[3.8516664514153756, 52.164142324053614], [3.527221429158986, 52.11837971665462], [3.4549726321335137, 51.9058536630086], [3.7055345568955165, 51.739783299591025], [4.027355385040228, 51.7857739955379], [4.101224546151929, 51.99760587617092], [3.8516664514153756, 52.164142324053614]]]}, "properties": {"cel": "84196b1ffffffff", "woningen": 5487, "eengezinswoningen": 4957}}, {"type": "Feature", "geometry": {"type": "Polygon", "coordinates": [[[5.731690882824933, 52.21976043766328], [5.651539058535321, 52.008471671779], [5.91500788768879, 51.88113817832873], [6.2596870559819795, 51.96477015603751], [6.342033022979809, 52.17616518088741], [6.07750897684047, 52.30382480519446], [5.731690882824933, 52.21976043766328]]]}, "properties": {"cel": "841969bffffffff", "woningen": 366978, "eengezinswoningen": 250577}}, {"type": "Feature", "geometry": {"type": "Polygon", "coordinates": [[[6.4093225399865545, 53.141844054033974], [6.325503774194409, 52.93326915377151], [6.592499941890046, 52.8066686793699], [6.944351153000187, 52.88829819773889], [7.030420182655282, 53.09694525393492], [6.76239166890601, 53.22389356434425], [6.4093225399865545, 53.141844054033974]]]}, "properties": {"cel": "84196dbffffffff", "woningen": 156249, "eengezinswoningen": 124628}}, {"type": "Feature", "geometry": {"type": "Polygon", "coordinates": [[[5.789690163060998, 53.183330146086654], [5.7081307738746485, 52.974843209860445], [5.975494800041361, 52.849979886683855], [6.325503774194409, 52.93326915377151], [6.4093225399865545, 53.141844054033974], [6.140876446992139, 53.26704465578924], [5.789690163060998, 53.183330146086654]]]}, "properties": {"cel": "84196d1ffffffff", "woningen": 144208, "eengezinswoningen": 121589}}, {"type": "Feature", "geometry": {"type": "Polygon", "coordinates": [[[5.2589102378856225, 50.9431118453796], [5.181974193802248, 50.728289377155534], [5.4406090718222675, 50.59880094247537], [5.777232872075266, 50.68383106622269], [5.85628479209224, 50.89879369067929], [5.596599839868723, 51.02858874200144], [5.2589102378856225, 50.9431118453796]]]}, "properties": {"cel": "841fa09ffffffff", "woningen": 96799, "eengezinswoningen": 56000}}, {"type": "Feature", "geometry": {"type": "Polygon", "coordinates": [[[3.4549726321335137, 51.9058536630086], [3.1311199059662225, 51.85839821458107], [3.060443531946851, 51.64465593592769], [3.311971067451304, 51.479060927031824], [3.633223094312099, 51.52673397987455], [3.7055345568955165, 51.739783299591025], [3.4549726321335137, 51.9058536630086]]]}, "properties": {"cel": "84196b7ffffffff", "woningen": 7833, "eengezinswoningen": 7110}}]}