{"type": "FeatureCollection", "features": [{"type": "Feature", "geometry": {"type": "Polygon", "coordinates": [[[4.418267301091156, 52.76191445366955], [4.434623087688363, 52.68467863031166], [4.559799796955104, 52.66236000676489], [4.668921895429569, 52.71727233703055], [4.652811962110735, 52.79456119408961], [4.527333580008223, 52.81688481399288], [4.418267301091156, 52.76191445366955]]]}, "properties": {"cel": "85196807fffffff", "rol": "eigen cel", "woningen": 740, "eengezinswoningen": 704}}, {"type": "Feature", "geometry": {"type": "Polygon", "coordinates": [[[4.3878162487475265, 52.92263094783665], [4.283393235418159, 52.88066007338772], [4.29761655278692, 52.79701949822705], [4.3764990813859415, 52.76929326937478], [4.418267301091156, 52.76191445366955], [4.527333580008223, 52.81688481399288], [4.51104492803178, 52.89399667801652], [4.427308673027778, 52.90873991881083], [4.3878162487475265, 52.92263094783665]]]}, "properties": {"cel": "85196803fffffff", "rol": "buurcel", "woningen": 0, "eengezinswoningen": 0}}, {"type": "Feature", "geometry": {"type": "Polygon", "coordinates": [[[4.29761655278692, 52.79701949822705], [4.193413472595336, 52.75483824158819], [4.207755360809091, 52.671085419121276], [4.325925564080153, 52.62958008752069], [4.434623087688363, 52.68467863031166], [4.418267301091156, 52.76191445366955], [4.3764990813859415, 52.76929326937478], [4.29761655278692, 52.79701949822705]]]}, "properties": {"cel": "8519680ffffffff", "rol": "buurcel", "woningen": 0, "eengezinswoningen": 0}}, {"type": "Feature", "geometry": {"type": "Polygon", "coordinates": [[[4.325925564080173, 52.62958008752065], [4.342347591191099, 52.55222085121344], [4.467223422483404, 52.52990653384952], [4.575977608984429, 52.58494727239545], [4.559799796955104, 52.66236000676489], [4.434623087688363, 52.68467863031166], [4.325925564080173, 52.62958008752065]]]}, "properties": {"cel": "8519683bfffffff", "rol": "buurcel", "woningen": 0, "eengezinswoningen": 0}}, {"type": "Feature", "geometry": {"type": "Polygon", "coordinates": [[[4.559799796955104, 52.66236000676489], [4.575977608984429, 52.58494727239545], [4.701031943601461, 52.5623938562044], [4.810208050642093, 52.617247995680685], [4.7942763066807546, 52.69471361469752], [4.668921895429569, 52.71727233703055], [4.559799796955104, 52.66236000676489]]]}, "properties": {"cel": "85196833fffffff", "rol": "buurcel", "woningen": 83477, "eengezinswoningen": 54959}}, {"type": "Feature", "geometry": {"type": "Polygon", "coordinates": [[[4.652811962110735, 52.79456119408961], [4.668921895429569, 52.71727233703055], [4.7942763066807546, 52.69471361469752], [4.9038211425180425, 52.74943788047439], [4.8879589206070255, 52.82677915639101], [4.762303657977041, 52.849343876138576], [4.652811962110735, 52.79456119408961]]]}, "properties": {"cel": "851968abfffffff", "rol": "buurcel", "woningen": 26729, "eengezinswoningen": 22407}}, {"type": "Feature", "geometry": {"type": "Polygon", "coordinates": [[[4.51104492803178, 52.89399667801652], [4.527333580008223, 52.81688481399288], [4.652811962110735, 52.79456119408961], [4.762303657977041, 52.849343876138576], [4.746262508635342, 52.92650831023656], [4.620481662408605, 52.94883762004644], [4.51104492803178, 52.89399667801652]]]}, "properties": {"cel": "85196817fffffff", "rol": "buurcel", "woningen": 7007, "eengezinswoningen": 6424}}]}