{"type": "FeatureCollection", "features": [{"type": "Feature", "geometry": {"type": "Polygon", "coordinates": [[[4.478355915369004, 53.04791881745584], [4.150108174211895, 53.00577849030706], [4.074712576769367, 52.79626540674204], [4.325925564080153, 52.62958008752069], [4.668921895429569, 52.71727233703055], [4.746262508635347, 52.92650831023656], [4.478355915369004, 53.04791881745584]]]}, "properties": {"cel": "8419681ffffffff", "rol": "eigen cel", "woningen": 3087, "eengezinswoningen 50-250 m\u00b2": 2652}}, {"type": "Feature", "geometry": {"type": "Polygon", "coordinates": [[[4.30250151595826, 53.422987953995175], [3.9715067405860176, 53.38107512402409], [3.896148288201094, 53.17213048086248], [4.150108174211895, 53.00577849030706], [4.478355915369004, 53.04791881745584], [4.555375854929365, 53.256182505446375], [4.30250151595826, 53.422987953995175]]]}, "properties": {"cel": "841968dffffffff", "rol": "buurcel", "woningen": 0, "eengezinswoningen 50-250 m\u00b2": 0}}, {"type": "Feature", "geometry": {"type": "Polygon", "coordinates": [[[3.896148288201094, 53.17213048086248], [3.565733200830683, 53.12850546099715], [3.492015550578522, 52.91831248089289], [3.7470203087766443, 52.75242323354995], [4.074712576769367, 52.79626540674204], [4.150108174211895, 53.00577849030706], [3.896148288201094, 53.17213048086248]]]}, "properties": {"cel": "8419685ffffffff", "rol": "buurcel", "woningen": 0, "eengezinswoningen 50-250 m\u00b2": 0}}, {"type": "Feature", "geometry": {"type": "Polygon", "coordinates": [[[4.074712576769367, 52.79626540674204], [3.7470203087766443, 52.75242323354995], [3.6732401514880517, 52.5416688509976], [3.9254969342341286, 52.375443093892166], [4.25050451151943, 52.41951326968969], [4.325925564080153, 52.62958008752069], [4.074712576769367, 52.79626540674204]]]}, "properties": {"cel": "8419687ffffffff", "rol": "buurcel", "woningen": 0, "eengezinswoningen 50-250 m\u00b2": 0}}, {"type": "Feature", "geometry": {"type": "Polygon", "coordinates": [[[4.325925564080173, 52.62958008752065], [4.25050451151944, 52.41951326968969], [4.515847674511955, 52.29699888389901], [4.857786417379108, 52.38425047116416], [4.935437210908015, 52.59445424847641], [4.668921895429569, 52.71727233703055], [4.325925564080173, 52.62958008752065]]]}, "properties": {"cel": "8419683ffffffff", "rol": "buurcel", "woningen": 409161, "eengezinswoningen 50-250 m\u00b2": 232752}}, {"type": "Feature", "geometry": {"type": "Polygon", "coordinates": [[[4.746262508635347, 52.92650831023656], [4.668921895429569, 52.71727233703055], [4.935437210908015, 52.59445424847641], [5.280447931154215, 52.68056006543038], [5.360037105543062, 52.889916444736166], [5.092369705235293, 53.01304949752498], [4.746262508635347, 52.92650831023656]]]}, "properties": {"cel": "841968bffffffff", "rol": "buurcel", "woningen": 181959, "eengezinswoningen 50-250 m\u00b2": 139754}}, {"type": "Feature", "geometry": {"type": "Polygon", "coordinates": [[[4.555375854929397, 53.256182505446375], [4.478355915369003, 53.04791881745583], [4.746262508635347, 52.92650831023656], [5.092369705235293, 53.01304949752498], [5.171662267208825, 53.22143268344653], [4.9025776222821325, 53.34315811241332], [4.555375854929397, 53.256182505446375]]]}, "properties": {"cel": "8419689ffffffff", "rol": "buurcel", "woningen": 28542, "eengezinswoningen 50-250 m\u00b2": 19597}}]}