{"type": "FeatureCollection", "features": [{"type": "Feature", "geometry": {"type": "Polygon", "coordinates": [[[3.4472618837182445, 51.86739760699357], [3.820316249972313, 51.37804998828365], [2.490578050932317, 50.72345218382837], [2.3921915885388, 52.2424376829041], [3.4472618837182445, 51.86739760699357]]]}, "properties": {"station": "310", "naam": "Vlissingen", "eengezinswoningen": 57076}}, {"type": "Feature", "geometry": {"type": "Polygon", "coordinates": [[[3.4472618837182445, 51.86739760699357], [4.213958631145307, 51.71763192846682], [4.061965707125925, 51.37067471422327], [3.820316249972313, 51.37804998828365], [3.4472618837182445, 51.86739760699357]]]}, "properties": {"station": "323", "naam": "Wilhelminadorp", "eengezinswoningen": 60822}}, {"type": "Feature", "geometry": {"type": "Polygon", "coordinates": [[[3.820316249972313, 51.37804998828365], [4.061965707125925, 51.37067471422327], [4.707955752659101, 50.81655918836882], [4.480572531414312, 50.26771525000665], [2.5206233160196563, 50.23545276447051], [2.490578050932317, 50.72345218382837], [3.820316249972313, 51.37804998828365]]]}, "properties": {"station": "319", "naam": "Westdorpe", "eengezinswoningen": 33139}}, {"type": "Feature", "geometry": {"type": "Polygon", "coordinates": [[[4.707955752659101, 50.81655918836882], [4.861794737964178, 50.977801309416726], [5.117944060363595, 51.051085914241106], [6.5018377771859726, 51.04863750386937], [7.883530110305814, 50.62704937832247], [7.863237473449218, 50.24455162469835], [4.480572531414312, 50.26771525000665], [4.707955752659101, 50.81655918836882]]]}, "properties": {"station": "380", "naam": "Maastricht Airport", "eengezinswoningen": 207503}}, {"type": "Feature", "geometry": {"type": "Polygon", "coordinates": [[[3.805263306178625, 52.443027771281244], [4.301845515826925, 52.04844082622076], [4.222425229232744, 51.71895633555561], [4.213958631145307, 51.71763192846682], [3.4472618837182445, 51.86739760699357], [2.3921915885388, 52.2424376829041], [2.3449295054364643, 52.93187102214258], [3.805263306178625, 52.443027771281244]]]}, "properties": {"station": "330", "naam": "Hoek van Holland", "eengezinswoningen": 119303}}, {"type": "Feature", "geometry": {"type": "Polygon", "coordinates": [[[4.213958631145307, 51.71763192846682], [4.222425229232744, 51.71895633555561], [4.544289556090335, 51.69355734273141], [4.861384126627209, 51.06291474764485], [4.861794737964178, 50.977801309416726], [4.707955752659101, 50.81655918836882], [4.061965707125925, 51.37067471422327], [4.213958631145307, 51.71763192846682]]]}, "properties": {"station": "340", "naam": "Woensdrecht Airport", "eengezinswoningen": 113814}}, {"type": "Feature", "geometry": {"type": "Polygon", "coordinates": [[[5.100405006034808, 53.043744061409924], [5.07194264250137, 52.83494145418006], [4.642220422729186, 52.724702916103226], [2.3361457245389725, 53.05729031807822], [2.3070828815573567, 53.46639038599393], [5.100405006034808, 53.043744061409924]]]}, "properties": {"station": "235", "naam": "De Kooy Airport", "eengezinswoningen": 52422}}, {"type": "Feature", "geometry": {"type": "Polygon", "coordinates": [[[4.301845515826925, 52.04844082622076], [4.682524433215315, 52.05636179797195], [4.69522232495468, 51.7655184051632], [4.544289556090335, 51.69355734273141], [4.222425229232744, 51.71895633555561], [4.301845515826925, 52.04844082622076]]]}, "properties": {"station": "344", "naam": "Rotterdam Airport", "eengezinswoningen": 401051}}, {"type": "Feature", "geometry": {"type": "Polygon", "coordinates": [[[4.861384126627209, 51.06291474764485], [5.2539357900342765, 51.65328786391186], [5.348198940115941, 51.67389618876438], [5.745344942717209, 51.42898880081386], [5.117944060363595, 51.051085914241106], [4.861794737964178, 50.977801309416726], [4.861384126627209, 51.06291474764485]]]}, "properties": {"station": "370", "naam": "Eindhoven Airport", "eengezinswoningen": 249359}}, {"type": "Feature", "geometry": {"type": "Polygon", "coordinates": [[[2.3449295054364643, 52.93187102214258], [2.3361457245389725, 53.05729031807822], [4.642220422729186, 52.724702916103226], [4.883359875064071, 52.48121139877941], [4.478542741573173, 52.33054427118613], [3.805263306178625, 52.443027771281244], [2.3449295054364643, 52.93187102214258]]]}, "properties": {"station": "257", "naam": "Wijk aan Zee", "eengezinswoningen": 136912}}, {"type": "Feature", "geometry": {"type": "Polygon", "coordinates": [[[3.805263306178625, 52.443027771281244], [4.478542741573173, 52.33054427118613], [4.748290770445972, 52.12769740293955], [4.682524433215315, 52.05636179797195], [4.301845515826925, 52.04844082622076], [3.805263306178625, 52.443027771281244]]]}, "properties": {"station": "215", "naam": "Voorschoten", "eengezinswoningen": 223373}}, {"type": "Feature", "geometry": {"type": "Polygon", "coordinates": [[[4.478542741573173, 52.33054427118613], [4.883359875064071, 52.48121139877941], [5.134967270349093, 52.42650378204733], [5.179477498626989, 52.33960115280262], [4.897815840783515, 52.14986542071669], [4.748290770445972, 52.12769740293955], [4.478542741573173, 52.33054427118613]]]}, "properties": {"station": "240", "naam": "Schiphol Airport", "eengezinswoningen": 272878}}, {"type": "Feature", "geometry": {"type": "Polygon", "coordinates": [[[5.304107684153367, 53.14329945158539], [5.100405006034808, 53.043744061409924], [2.3070828815573567, 53.46639038599393], [2.2664024899041726, 54.02430224989282], [4.3810575326215755, 54.06016277145592], [5.304107684153367, 53.14329945158539]]]}, "properties": {"station": "242", "naam": "Vlieland Vliehors", "eengezinswoningen": 1859}}, {"type": "Feature", "geometry": {"type": "Polygon", "coordinates": [[[4.748290770445972, 52.12769740293955], [4.897815840783515, 52.14986542071669], [5.124706276892285, 51.98155357899802], [4.842485377062279, 51.76712535784197], [4.69522232495468, 51.7655184051632], [4.682524433215315, 52.05636179797195], [4.748290770445972, 52.12769740293955]]]}, "properties": {"station": "348", "naam": "Cabauw", "eengezinswoningen": 140752}}, {"type": "Feature", "geometry": {"type": "Polygon", "coordinates": [[[4.883359875064071, 52.48121139877941], [4.642220422729186, 52.724702916103226], [5.07194264250137, 52.83494145418006], [5.357601729394194, 52.66716779828839], [5.134967270349093, 52.42650378204733], [4.883359875064071, 52.48121139877941]]]}, "properties": {"station": "249", "naam": "Berkhout", "eengezinswoningen": 202276}}, {"type": "Feature", "geometry": {"type": "Polygon", "coordinates": [[[4.897815840783515, 52.14986542071669], [5.179477498626989, 52.33960115280262], [5.5483462467600395, 52.207732070948225], [5.506984057616284, 51.96048343152117], [5.124706276892285, 51.98155357899802], [4.897815840783515, 52.14986542071669]]]}, "properties": {"station": "260", "naam": "De Bilt", "eengezinswoningen": 375123}}, {"type": "Feature", "geometry": {"type": "Polygon", "coordinates": [[[4.69522232495468, 51.7655184051632], [4.842485377062279, 51.76712535784197], [5.2539357900342765, 51.65328786391186], [4.861384126627209, 51.06291474764485], [4.544289556090335, 51.69355734273141], [4.69522232495468, 51.7655184051632]]]}, "properties": {"station": "350", "naam": "Gilze-Rijen Airport", "eengezinswoningen": 269986}}, {"type": "Feature", "geometry": {"type": "Polygon", "coordinates": [[[5.07194264250137, 52.83494145418006], [5.100405006034808, 53.043744061409924], [5.304107684153367, 53.14329945158539], [5.36197672828844, 53.144924127278806], [5.807464179499509, 52.962296665772506], [5.515207187949717, 52.685185737238626], [5.357601729394194, 52.66716779828839], [5.07194264250137, 52.83494145418006]]]}, "properties": {"station": "267", "naam": "Stavoren", "eengezinswoningen": 32084}}, {"type": "Feature", "geometry": {"type": "Polygon", "coordinates": [[[5.134967270349093, 52.42650378204733], [5.357601729394194, 52.66716779828839], [5.515207187949717, 52.685185737238626], [5.891944492286216, 52.475205358159876], [5.878780933017909, 52.31692656935806], [5.5483462467600395, 52.207732070948225], [5.179477498626989, 52.33960115280262], [5.134967270349093, 52.42650378204733]]]}, "properties": {"station": "269", "naam": "Lelystad Airport", "eengezinswoningen": 166942}}, {"type": "Feature", "geometry": {"type": "Polygon", "coordinates": [[[5.124706276892285, 51.98155357899802], [5.506984057616284, 51.96048343152117], [5.553297210971951, 51.895151325791254], [5.348198940115941, 51.67389618876438], [5.2539357900342765, 51.65328786391186], [4.842485377062279, 51.76712535784197], [5.124706276892285, 51.98155357899802]]]}, "properties": {"station": "356", "naam": "Herwijnen", "eengezinswoningen": 176921}}, {"type": "Feature", "geometry": {"type": "Polygon", "coordinates": [[[5.506984057616284, 51.96048343152117], [5.5483462467600395, 52.207732070948225], [5.878780933017909, 52.31692656935806], [6.260250052175029, 52.17051942464179], [6.275064751728798, 51.830219669461655], [6.141233853719221, 51.80056667896806], [5.553297210971951, 51.895151325791254], [5.506984057616284, 51.96048343152117]]]}, "properties": {"station": "275", "naam": "Deelen Airport", "eengezinswoningen": 374073}}, {"type": "Feature", "geometry": {"type": "Polygon", "coordinates": [[[5.766539443153197, 53.495404381709236], [5.36197672828844, 53.144924127278806], [5.304107684153367, 53.14329945158539], [4.3810575326215755, 54.06016277145592], [5.726708554115002, 54.0638448321652], [5.766539443153197, 53.495404381709236]]]}, "properties": {"station": "251", "naam": "Hoorn Terschelling", "eengezinswoningen": 2808}}, {"type": "Feature", "geometry": {"type": "Polygon", "coordinates": [[[5.745344942717209, 51.42898880081386], [5.348198940115941, 51.67389618876438], [5.553297210971951, 51.895151325791254], [6.141233853719221, 51.80056667896806], [5.829470285484385, 51.43294398124416], [5.745344942717209, 51.42898880081386]]]}, "properties": {"station": "375", "naam": "Volkel", "eengezinswoningen": 263532}}, {"type": "Feature", "geometry": {"type": "Polygon", "coordinates": [[[5.829470285484385, 51.43294398124416], [6.5018377771859726, 51.04863750386937], [5.117944060363595, 51.051085914241106], [5.745344942717209, 51.42898880081386], [5.829470285484385, 51.43294398124416]]]}, "properties": {"station": "377", "naam": "Ell", "eengezinswoningen": 128658}}, {"type": "Feature", "geometry": {"type": "Polygon", "coordinates": [[[5.36197672828844, 53.144924127278806], [5.766539443153197, 53.495404381709236], [6.163402020157661, 53.1582739476532], [6.1084548299563215, 52.99057597595968], [5.807464179499509, 52.962296665772506], [5.36197672828844, 53.144924127278806]]]}, "properties": {"station": "270", "naam": "Leeuwarden Airport", "eengezinswoningen": 146534}}, {"type": "Feature", "geometry": {"type": "Polygon", "coordinates": [[[5.807464179499509, 52.962296665772506], [6.1084548299563215, 52.99057597595968], [6.1908381911208545, 52.94103378888758], [6.243963000821434, 52.65617037184567], [5.891944492286216, 52.475205358159876], [5.515207187949717, 52.685185737238626], [5.807464179499509, 52.962296665772506]]]}, "properties": {"station": "273", "naam": "Marknesse", "eengezinswoningen": 119864}}, {"type": "Feature", "geometry": {"type": "Polygon", "coordinates": [[[6.766907903911074, 53.44739698733494], [6.163402020157661, 53.1582739476532], [5.766539443153197, 53.495404381709236], [5.726708554115002, 54.0638448321652], [7.160275218764865, 54.051404224476194], [6.766907903911074, 53.44739698733494]]]}, "properties": {"station": "277", "naam": "Lauwersoog", "eengezinswoningen": 39426}}, {"type": "Feature", "geometry": {"type": "Polygon", "coordinates": [[[6.1084548299563215, 52.99057597595968], [6.163402020157661, 53.1582739476532], [6.766907903911074, 53.44739698733494], [6.946104603289884, 52.933016800692016], [6.1908381911208545, 52.94103378888758], [6.1084548299563215, 52.99057597595968]]]}, "properties": {"station": "280", "naam": "Groningen Airport Eelde", "eengezinswoningen": 192901}}, {"type": "Feature", "geometry": {"type": "Polygon", "coordinates": [[[6.5018377771859726, 51.04863750386937], [5.829470285484385, 51.43294398124416], [6.141233853719221, 51.80056667896806], [6.275064751728798, 51.830219669461655], [7.920517486169798, 51.30600511696993], [7.883530110305814, 50.62704937832247], [6.5018377771859726, 51.04863750386937]]]}, "properties": {"station": "391", "naam": "Arcen", "eengezinswoningen": 81877}}, {"type": "Feature", "geometry": {"type": "Polygon", "coordinates": [[[5.878780933017909, 52.31692656935806], [5.891944492286216, 52.475205358159876], [6.243963000821434, 52.65617037184567], [6.672452554709319, 52.49699277917309], [6.523962415912128, 52.27881750474114], [6.260250052175029, 52.17051942464179], [5.878780933017909, 52.31692656935806]]]}, "properties": {"station": "278", "naam": "Heino", "eengezinswoningen": 191967}}, {"type": "Feature", "geometry": {"type": "Polygon", "coordinates": [[[6.523962415912128, 52.27881750474114], [6.672452554709319, 52.49699277917309], [7.45806721551922, 52.68882047390134], [7.996411939247737, 52.629710528932776], [7.940122016195212, 51.656656370964036], [6.523962415912128, 52.27881750474114]]]}, "properties": {"station": "290", "naam": "Twenthe Airport", "eengezinswoningen": 165033}}, {"type": "Feature", "geometry": {"type": "Polygon", "coordinates": [[[6.523962415912128, 52.27881750474114], [7.940122016195212, 51.656656370964036], [7.920517486169798, 51.30600511696993], [6.275064751728798, 51.830219669461655], [6.260250052175029, 52.17051942464179], [6.523962415912128, 52.27881750474114]]]}, "properties": {"station": "283", "naam": "Hupsel", "eengezinswoningen": 112696}}, {"type": "Feature", "geometry": {"type": "Polygon", "coordinates": [[[6.1908381911208545, 52.94103378888758], [6.946104603289884, 52.933016800692016], [7.45806721551922, 52.68882047390134], [6.672452554709319, 52.49699277917309], [6.243963000821434, 52.65617037184567], [6.1908381911208545, 52.94103378888758]]]}, "properties": {"station": "279", "naam": "Hoogeveen", "eengezinswoningen": 130513}}, {"type": "Feature", "geometry": {"type": "Polygon", "coordinates": [[[7.45806721551922, 52.68882047390134], [6.946104603289884, 52.933016800692016], [6.766907903911074, 53.44739698733494], [7.160275218764865, 54.051404224476194], [8.08294115540405, 54.03445931754085], [7.996411939247737, 52.629710528932776], [7.45806721551922, 52.68882047390134]]]}, "properties": {"station": "286", "naam": "Nieuw Beerta", "eengezinswoningen": 63340}}]}